STARLINK-35974          
1 66862U 25281Q   26140.73290107  .00009395  00000+0  35036-3 0  9993
2 66862  43.0027 296.6079 0001122 269.3251  90.7472 15.27593678 27202
STARLINK-36134          
1 66863U 25281R   26140.83154823  .00016517  00000+0  60755-3 0  9999
2 66863  43.0026 295.6214 0001695 272.1623  87.9034 15.27626169 27228
STARLINK-36070          
1 66864U 25281S   26140.49062947  .00008003  00000+0  29994-3 0  9998
2 66864  43.0020 298.2336 0001335 272.4342  87.6357 15.27591071 27160
STARLINK-36117          
1 66865U 25281T   26140.83925884  .00013139  00000+0  48600-3 0  9996
2 66865  43.0009 295.6827 0001509 269.0383  91.0296 15.27587978 27223
STARLINK-36126          
1 66866U 25281U   26140.82912069  .00011410  00000+0  42327-3 0  9997
2 66866  43.0049 296.4738 0002375 270.6905  89.3675 15.27598194 27209
STARLINK-36101          
1 66867U 25281V   26140.82526538  .00011613  00000+0  43063-3 0  9993
2 66867  43.0037 296.4442 0002445 268.0813  91.9759 15.27596018 27201
STARLINK-36108          
1 66868U 25281W   26140.49446539  .00014534  00000+0  53589-3 0  9998
2 66868  43.0028 298.2638 0001804 270.3513  89.7132 15.27625066 27150
STARLINK-36092          
1 66869U 25281X   26141.14192248  .00015380  00000+0  56702-3 0  9997
2 66869  43.0068 294.5203 0001940 273.6992  86.3638 15.27593745 27253
STARLINK-36114          
1 66870U 25281Y   26141.13806063  .00010493  00000+0  39009-3 0  9996
2 66870  43.0044 294.4870 0001836 267.4665  92.5976 15.27598280 27253
STARLINK-36095          
1 66871U 25281Z   26140.74189404  .00010004  00000+0  37244-3 0  9993
2 66871  43.0021 296.6731 0001385 270.3616  89.7077 15.27590336 27183
STARLINK-36082          
1 66872U 25281AA  26140.80342329  .00010439  00000+0  38817-3 0  9997
2 66872  43.0067 296.2720 0001428 294.4108  65.6595 15.27595425 27204
STARLINK-36128          
1 66873U 25281AB  26141.12006873  .00020045  00000+0  73517-3 0  9995
2 66873  43.0022 294.3446 0003531 289.0535  70.9934 15.27612468 27204
STARLINK-36129          
1 66874U 25281AC  26141.12650628  .00012384  00000+0  45858-3 0  9993
2 66874  43.0027 294.3979 0001267 275.4775  84.5933 15.27594303 27252
STARLINK-36053          
1 66875U 25281AD  26141.11622486  .00009298  00000+0  34684-3 0  9999
2 66875  43.0000 294.3179 0001301 275.0494  85.0209 15.27592817 27204
STARLINK-35702          
1 66876U 25281AE  26140.73032884  .00013398  00000+0  49524-3 0  9999
2 66876  43.0014 296.5837 0001405 274.5169  85.5522 15.27597343 27193
STARLINK-35866          
1 66878U 25283A   26140.98030300  .00012606  00000+0  43686-3 0  9995
2 66878  53.1587  48.2797 0001274 125.6375 234.4745 15.30211430 26913
STARLINK-35749          
1 66879U 25283B   26141.03401296  .00013117  00000+0  45440-3 0  9997
2 66879  53.1578  47.9035 0000967  68.6102 291.5002 15.30186915 26927
STARLINK-35844          
1 66880U 25283C   26141.03928923  .00001888  00000+0  75877-4 0  9990
2 66880  53.1594  47.9390 0001229  86.7329 273.3812 15.30190619 26928
STARLINK-35860          
1 66881U 25283D   26141.02768158  .00011920  00000+0  41407-3 0  9991
2 66881  53.1589  47.8668 0001261  84.6766 275.4379 15.30189707 26925
STARLINK-35912          
1 66882U 25283E   26140.96620026 -.00000097  00000+0  82778-5 0  9997
2 66882  53.1596  48.1980 0001136  83.9648 276.1485 15.34376301 26914
STARLINK-35947          
1 66883U 25283F   26141.03975145  .00022552  00000+0  67683-3 0  9997
2 66883  53.1587  47.9451 0001305  90.0904 270.0248 15.34387668 26948
STARLINK-36057          
1 66884U 25283G   26139.17998311  .00009445  00000+0  33056-3 0  9993
2 66884  53.1612  56.9549 0001116  89.4275 270.6854 15.30206043 26637
STARLINK-35954          
1 66885U 25283H   26141.05868183 -.00008221  00000+0 -23259-3 0  9994
2 66885  53.1609  48.0634 0001544  67.8496 292.2670 15.34380019 26929
STARLINK-35900          
1 66886U 25283J   26141.25002315  .00032938  00000+0  98236-3 0  9991
2 66886  53.1593  47.0752 0001186  83.2765 300.8471 15.34378837  5876
STARLINK-35925          
1 66887U 25283K   26141.06356149  .00011861  00000+0  41209-3 0  9998
2 66887  53.1608  48.0893 0001120  88.3639 271.7490 15.30189405 26928
STARLINK-35919          
1 66888U 25283L   26141.12570981  .00001668  00000+0  68445-4 0  9994
2 66888  53.1612  47.7637 0001180  98.0682 262.0453 15.30190772 26930
STARLINK-35852          
1 66889U 25283M   26141.25002315  .00081873  00000+0  24170-2 0  9991
2 66889  53.1590  47.0498 0000257  76.1728 319.5955 15.34282158  5864
STARLINK-35885          
1 66890U 25283N   26141.05405967  .00003971  00000+0  14611-3 0  9994
2 66890  53.1602  48.0272 0001405  85.1108 275.0053 15.30201699 26921
STARLINK-35855          
1 66891U 25283P   26141.11621341  .00021293  00000+0  72899-3 0  9997
2 66891  53.1604  47.7036 0001745  85.0412 275.0788 15.30199189 26938
STARLINK-35883          
1 66892U 25283Q   26141.04773159  .00011263  00000+0  39186-3 0  9993
2 66892  53.1588  47.9923 0001173 123.6031 236.5082 15.30195740 26925
