OBJECT_NAME,OBJECT_ID,EPOCH,MEAN_MOTION,ECCENTRICITY,INCLINATION,RA_OF_ASC_NODE,ARG_OF_PERICENTER,MEAN_ANOMALY,EPHEMERIS_TYPE,CLASSIFICATION_TYPE,NORAD_CAT_ID,ELEMENT_SET_NO,REV_AT_EPOCH,BSTAR,MEAN_MOTION_DOT,MEAN_MOTION_DDOT
STARLINK-35974,2025-281Q,2026-05-20T17:35:22.652448,15.27593678,.00011223,43.0027,296.6079,269.3251,90.7472,0,U,66862,999,2720,.35036462E-3,.9395E-4,0
STARLINK-36134,2025-281R,2026-05-20T19:57:25.767072,15.27626169,.00016952,43.0026,295.6214,272.1623,87.9034,0,U,66863,999,2722,.60755418E-3,.16517E-3,0
STARLINK-36070,2025-281S,2026-05-20T11:46:30.386208,15.27591071,.00013357,43.0020,298.2336,272.4342,87.6357,0,U,66864,999,2716,.29994275E-3,.8003E-4,0
STARLINK-36117,2025-281T,2026-05-20T20:08:31.963776,15.27587978,.00015097,43.0009,295.6827,269.0383,91.0296,0,U,66865,999,2722,.48600195E-3,.13139E-3,0
STARLINK-36126,2025-281U,2026-05-20T19:53:56.027616,15.27598194,.00023753,43.0049,296.4738,270.6905,89.3675,0,U,66866,999,2720,.42326659E-3,.1141E-3,0
STARLINK-36101,2025-281V,2026-05-20T19:48:22.928832,15.27596018,.00024458,43.0037,296.4442,268.0813,91.9759,0,U,66867,999,2720,.43063152E-3,.11613E-3,0
STARLINK-36108,2025-281W,2026-05-20T11:52:01.809696,15.27625066,.00018049,43.0028,298.2638,270.3513,89.7132,0,U,66868,999,2715,.53588983E-3,.14534E-3,0
STARLINK-36092,2025-281X,2026-05-21T03:24:22.102272,15.27593745,.00019407,43.0068,294.5203,273.6992,86.3638,0,U,66869,999,2725,.56702133E-3,.1538E-3,0
STARLINK-36114,2025-281Y,2026-05-21T03:18:48.438432,15.27598280,.00018365,43.0044,294.4870,267.4665,92.5976,0,U,66870,999,2725,.39008766E-3,.10493E-3,0
STARLINK-36095,2025-281Z,2026-05-20T17:48:19.645056,15.27590336,.00013851,43.0021,296.6731,270.3616,89.7077,0,U,66871,999,2718,.3724446E-3,.10004E-3,0
STARLINK-36082,2025-281AA,2026-05-20T19:16:55.772256,15.27595425,.00014289,43.0067,296.2720,294.4108,65.6595,0,U,66872,999,2720,.38816548E-3,.10439E-3,0
STARLINK-36128,2025-281AB,2026-05-21T02:52:53.938272,15.27612468,.00035311,43.0022,294.3446,289.0535,70.9934,0,U,66873,999,2720,.73517202E-3,.20045E-3,0
STARLINK-36129,2025-281AC,2026-05-21T03:02:10.142592,15.27594303,.00012672,43.0027,294.3979,275.4775,84.5933,0,U,66874,999,2725,.45858102E-3,.12384E-3,0
STARLINK-36053,2025-281AD,2026-05-21T02:47:21.827904,15.27592817,.00013016,43.0000,294.3179,275.0494,85.0209,0,U,66875,999,2720,.34683676E-3,.9298E-4,0
STARLINK-35702,2025-281AE,2026-05-20T17:31:40.411776,15.27597343,.00014053,43.0014,296.5837,274.5169,85.5522,0,U,66876,999,2719,.49524204E-3,.13398E-3,0
STARLINK-35866,2025-283A,2026-05-20T23:31:38.179200,15.30211430,.00012745,53.1587,48.2797,125.6375,234.4745,0,U,66878,999,2691,.43685994E-3,.12606E-3,0
STARLINK-35749,2025-283B,2026-05-21T00:48:58.719744,15.30186915,.00009672,53.1578,47.9035,68.6102,291.5002,0,U,66879,999,2692,.45439835E-3,.13117E-3,0
STARLINK-35844,2025-283C,2026-05-21T00:56:34.589472,15.30190619,.0001229,53.1594,47.9390,86.7329,273.3812,0,U,66880,999,2692,.75876812E-4,.1888E-4,0
STARLINK-35860,2025-283D,2026-05-21T00:39:51.688512,15.30189707,.00012613,53.1589,47.8668,84.6766,275.4379,0,U,66881,999,2692,.41407161E-3,.1192E-3,0
STARLINK-35912,2025-283E,2026-05-20T23:11:19.702464,15.34376301,.00011367,53.1596,48.1980,83.9648,276.1485,0,U,66882,999,2691,.8277827E-5,-.97E-6,0
STARLINK-35947,2025-283F,2026-05-21T00:57:14.525280,15.34387668,.00013053,53.1587,47.9451,90.0904,270.0248,0,U,66883,999,2694,.67683377E-3,.22552E-3,0
STARLINK-36057,2025-283G,2026-05-19T04:19:10.540704,15.30206043,.00011166,53.1612,56.9549,89.4275,270.6854,0,U,66884,999,2663,.33055694E-3,.9445E-4,0
STARLINK-35954,2025-283H,2026-05-21T01:24:30.110112,15.34380019,.00015447,53.1609,48.0634,67.8496,292.2670,0,U,66885,999,2692,-.23259189E-3,-.8221E-4,0
STARLINK-35900,2025-283J,2026-05-21T06:00:02.000160,15.34378837,.00011869,53.1593,47.0752,83.2765,300.8471,0,U,66886,999,587,.98235617E-3,.32938E-3,0
STARLINK-35925,2025-283K,2026-05-21T01:31:31.712736,15.30189405,.00011201,53.1608,48.0893,88.3639,271.7490,0,U,66887,999,2692,.4120917E-3,.11861E-3,0
STARLINK-35919,2025-283L,2026-05-21T03:01:01.327584,15.30190772,.000118,53.1612,47.7637,98.0682,262.0453,0,U,66888,999,2693,.68445373E-4,.1668E-4,0
STARLINK-35852,2025-283M,2026-05-21T06:00:02.000160,15.34282158,.00002577,53.1590,47.0498,76.1728,319.5955,0,U,66889,999,586,.2416996E-2,.81873E-3,0
STARLINK-35885,2025-283N,2026-05-21T01:17:50.755488,15.30201699,.0001405,53.1602,48.0272,85.1108,275.0053,0,U,66890,999,2692,.14611464E-3,.3971E-4,0
STARLINK-35855,2025-283P,2026-05-21T02:47:20.838624,15.30199189,.00017455,53.1604,47.7036,85.0412,275.0788,0,U,66891,999,2693,.7289876E-3,.21293E-3,0
STARLINK-35883,2025-283Q,2026-05-21T01:08:44.009376,15.30195740,.00011737,53.1588,47.9923,123.6031,236.5082,0,U,66892,999,2692,.39185686E-3,.11263E-3,0
